NORAD_CAT_ID,OBJECT_NAME,OBJECT_TYPE,EPOCH,MEAN_MOTION,ECCENTRICITY,INCLINATION,RA_OF_ASC_NODE,ARG_OF_PERICENTER,MEAN_ANOMALY,BSTAR,MEAN_MOTION_DOT,MEAN_MOTION_DDOT,TLE_LINE0,TLE_LINE1,TLE_LINE2,SEMIMAJOR_AXIS,PERIOD,APOGEE,PERIGEE,DECAYED
51985.0,STARLINK-3651,PAYLOAD,2022-11-14 16:04:07,15.08839303,0.0001805,53.2183,75.607,53.3223,306.7935,4.5225e-05,4.32e-06,0.0,0 STARLINK-3651,1 51985U 22025AF  22318.66953106  .00000432  00000-0  45225-4 0  9992,2 51985  53.2183  75.6070 0001805  53.3223 306.7935 15.08839303 38238,6917.8830000000025,95.438,540.996,538.499,0.0
51985.0,STARLINK-3651,PAYLOAD,2022-11-15 11:08:45,15.08835944,0.0001721999999999,53.2182,72.0386,48.6138,311.5002,0.0001393,1.929e-05,0.0,0 STARLINK-3651,1 51985U 22025AF  22319.46441326  .00001929  00000-0  13930-3 0  9996,2 51985  53.2182  72.0386 0001722  48.6138 311.5002 15.08835944 39448,6917.893,95.438,540.9490000000002,538.567,0.0
51985.0,STARLINK-3651,PAYLOAD,2022-11-15 14:19:31,15.08837678,0.0001721999999999,53.2188,71.4442,50.0925,310.0218,0.00015447,2.171e-05,0.0,0 STARLINK-3651,1 51985U 22025AF  22319.59689321  .00002171  00000-0  15447-3 0  9994,2 51985  53.2188  71.4442 0001722  50.0925 310.0218 15.08837678 38371,6917.887,95.438,540.944,538.561,0.0
51985.0,STARLINK-3651,PAYLOAD,2022-11-15 15:54:54,15.0883441,0.0001771,53.2186,71.1473,51.918,308.1972,0.00019159,2.762e-05,0.0,0 STARLINK-3651,1 51985U 22025AF  22319.66313499  .00002762  00000-0  19159-3 0  9992,2 51985  53.2186  71.1473 0001771  51.9180 308.1972 15.08834410 38384,6917.897,95.438,540.988,538.5369999999998,0.0
51985.0,STARLINK-3651,PAYLOAD,2022-11-16 14:10:18,15.08836256,0.0001717,53.2195,66.9849,45.8859,314.2274,0.00011439,1.533e-05,0.0,0 STARLINK-3651,1 51985U 22025AF  22320.59049392  .00001533  00000-0  11439-3 0  9992,2 51985  53.2195  66.9849 0001717  45.8859 314.2274 15.08836256 38527,6917.892,95.438,540.945,538.569,0.0
51985.0,STARLINK-3651,PAYLOAD,2022-11-16 15:45:41,15.08836664,0.0001813,53.2194,66.6876,46.0558,314.0584,0.00011097,1.478e-05,0.0,0 STARLINK-3651,1 51985U 22025AF  22320.65673328  .00001478  00000-0  11097-3 0  9999,2 51985  53.2194  66.6876 0001813  46.0558 314.0584 15.08836664 39626,6917.891,95.438,541.01,538.501,0.0
51985.0,STARLINK-3651,PAYLOAD,2022-11-16 23:42:36,15.08843415,0.000176,53.2195,65.2009,45.3699,314.7436,0.00014092,1.956e-05,0.0,0 STARLINK-3651,1 51985U 22025AF  22320.98792737  .00001956  00000-0  14092-3 0  9990,2 51985  53.2195  65.2009 0001760  45.3699 314.7436 15.08843415 39679,6917.87,95.437,540.952,538.5169999999998,0.0
51985.0,STARLINK-3651,PAYLOAD,2022-11-17 09:14:56,15.08836422,0.000176,53.2196,63.417,47.1119,313.0021,8.562600000000001e-05,1.075e-05,0.0,0 STARLINK-3651,1 51985U 22025AF  22321.38537353  .00001075  00000-0  85626-4 0  9990,2 51985  53.2196  63.4170 0001760  47.1119 313.0021 15.08836422 39735,6917.891,95.438,540.974,538.539,0.0
51985.0,STARLINK-3651,PAYLOAD,2022-11-17 14:01:05,15.08837984,0.0001781,53.2195,62.525,47.6009,312.5133,9.2124e-05,1.178e-05,0.0,0 STARLINK-3651,1 51985U 22025AF  22321.58409256  .00001178  00000-0  92124-4 0  9997,2 51985  53.2195  62.5250 0001781  47.6009 312.5133 15.08837984 38673,6917.887,95.438,540.984,538.519,0.0
51985.0,STARLINK-3651,PAYLOAD,2022-11-18 15:27:15,15.08836719,0.0001818,53.2195,57.7676,48.8666,311.2483,6.583e-05,7.6e-06,0.0,0 STARLINK-3651,1 51985U 22025AF  22322.64393460  .00000760  00000-0  65830-4 0  9994,2 51985  53.2195  57.7676 0001818  48.8666 311.2483 15.08836719 39922,6917.89,95.438,541.013,538.498,0.0
51985.0,STARLINK-3651,PAYLOAD,2022-11-18 23:24:10,15.08848147,0.0001874,53.2196,56.2806,49.182,310.9335,0.00011279,1.508e-05,0.0,0 STARLINK-3651,1 51985U 22025AF  22322.97512533  .00001508  00000-0  11279-3 0  9992,2 51985  53.2196  56.2806 0001874  49.1820 310.9335 15.08848147 39975,6917.855,95.437,541.0169999999998,538.424,0.0
51985.0,STARLINK-3651,PAYLOAD,2022-11-19 07:21:06,15.08845835,0.0001819,53.2195,54.7929,54.3343,305.7819,0.00011366,1.522e-05,0.0,0 STARLINK-3651,1 51985U 22025AF  22323.30632646  .00001522  00000-0  11366-3 0  9991,2 51985  53.2195  54.7929 0001819  54.3343 305.7819 15.08845835 38935,6917.863,95.437,540.986,538.469,0.0
51985.0,STARLINK-3651,PAYLOAD,2022-11-19 15:18:02,15.08846417,0.0002023,53.2198,53.3067,49.2734,310.8434,0.00011841,1.597e-05,0.0,0 STARLINK-3651,1 51985U 22025AF  22323.63752601  .00001597  00000-0  11841-3 0  9991,2 51985  53.2198  53.3067 0002023  49.2734 310.8434 15.08846417 38983,6917.861,95.437,541.125,538.326,0.0
51985.0,STARLINK-3651,PAYLOAD,2022-11-20 02:25:44,15.08839996,0.0001921,53.22,51.2262,43.5276,316.5868,9.9196e-05,1.291e-05,0.0,0 STARLINK-3651,1 51985U 22025AF  22324.10120812  .00001291  00000-0  99196-4 0  9998,2 51985  53.2200  51.2262 0001921  43.5276 316.5868 15.08839996 40144,6917.88,95.438,541.0740000000002,538.4159999999998,0.0
51985.0,STARLINK-3651,PAYLOAD,2022-11-20 10:22:40,15.08835327,0.0001946,53.2198,49.7391,43.5148,316.5998,-5.6787e-05,-1.192e-05,0.0,0 STARLINK-3651,1 51985U 22025AF  22324.43241645 -.00001192  00000-0 -56787-4 0  9993,2 51985  53.2198  49.7391 0001946  43.5148 316.5998 15.08835327 40193,6917.895,95.438,541.106,538.413,0.0
51985.0,STARLINK-3651,PAYLOAD,2022-11-20 11:58:03,15.08836242,0.0001951,53.2197,49.4418,43.8985,316.2162,-4.9332e-05,-1.073e-05,0.0,0 STARLINK-3651,1 51985U 22025AF  22324.49865567 -.00001073  00000-0 -49332-4 0  9990,2 51985  53.2197  49.4418 0001951  43.8985 316.2162 15.08836242 39114,6917.892,95.438,541.107,538.4069999999998,0.0
51985.0,STARLINK-3651,PAYLOAD,2022-11-20 18:19:36,15.08839521,0.0001963,53.2196,48.2523,43.6065,316.5082,-1.9357e-05,-5.96e-06,0.0,0 STARLINK-3651,1 51985U 22025AF  22324.76361262 -.00000596  00000-0 -19357-4 0  9996,2 51985  53.2196  48.2523 0001963  43.6065 316.5082 15.08839521 39158,6917.882,95.438,541.105,538.389,0.0
51985.0,STARLINK-3651,PAYLOAD,2022-11-21 02:16:31,15.0884241,0.0001962,53.2196,46.7656,43.6395,316.4752,-4.1771e-06,-3.55e-06,0.0,0 STARLINK-3651,1 51985U 22025AF  22325.09480999 -.00000355  00000-0 -41771-5 0  9991,2 51985  53.2196  46.7656 0001962  43.6395 316.4752 15.08842410 40294,6917.873000000001,95.437,541.095,538.381,0.0
51985.0,STARLINK-3651,PAYLOAD,2022-11-21 11:48:50,15.08834882,0.0001845,53.2196,44.9811,44.7077,315.4064,1.9549e-05,2.3e-07,0.0,0 STARLINK-3651,1 51985U 22025AF  22325.49225640  .00000023  00000-0  19549-4 0  9992,2 51985  53.2196  44.9811 0001845  44.7077 315.4064 15.08834882 40352,6917.896,95.438,541.0369999999998,538.485,0.0
51985.0,STARLINK-3651,PAYLOAD,2022-11-21 19:45:46,15.08843806,0.0001869,53.2196,43.4945,42.3407,317.7729,1.9113e-05,1.6e-07,0.0,0 STARLINK-3651,1 51985U 22025AF  22325.82345098  .00000016  00000-0  19113-4 0  9998,2 51985  53.2196  43.4945 0001869  42.3407 317.7729 15.08843806 39314,6917.869000000002,95.437,541.0269999999998,538.441,0.0
51985.0,STARLINK-3651,PAYLOAD,2022-11-22 00:31:55,15.08848284,0.0001838,53.2196,42.6024,42.0397,318.0736,3.8605e-05,3.26e-06,0.0,0 STARLINK-3651,1 51985U 22025AF  22326.02216731  .00000326  00000-0  38605-4 0  9993,2 51985  53.2196  42.6024 0001838  42.0397 318.0736 15.08848284 40436,6917.855,95.437,540.992,538.4490000000002,0.0
51985.0,STARLINK-3651,PAYLOAD,2022-11-22 11:39:37,15.08849886,0.000191,53.2191,40.5211,40.5253,319.5881,0.00027123,4.032e-05,0.0,0 STARLINK-3651,1 51985U 22025AF  22326.48584897  .00004032  00000-0  27123-3 0  9994,2 51985  53.2191  40.5211 0001910  40.5253 319.5881 15.08849886 39413,6917.85,95.437,541.036,538.394,0.0
51985.0,STARLINK-3651,PAYLOAD,2022-11-22 18:01:10,15.0883717,0.0001903,53.2191,39.3318,42.1829,317.931,0.00017235,2.456e-05,0.0,0 STARLINK-3651,1 51985U 22025AF  22326.75081631  .00002456  00000-0  17235-3 0  9993,2 51985  53.2191  39.3318 0001903  42.1829 317.9310 15.08837170 40544,6917.889,95.438,541.071,538.438,0.0
51985.0,STARLINK-3651,PAYLOAD,2022-11-22 19:36:33,15.08837481,0.0001917,53.2191,39.0345,41.7884,318.3255,0.00015566,2.19e-05,0.0,0 STARLINK-3651,1 51985U 22025AF  22326.81705562  .00002190  00000-0  15566-3 0  9996,2 51985  53.2191  39.0345 0001917  41.7884 318.3255 15.08837481 39469,6917.888000000001,95.438,541.0790000000002,538.427,0.0
51985.0,STARLINK-3651,PAYLOAD,2022-11-23 11:30:25,15.08831475,0.0001961,53.2188,36.0608,41.4618,318.6523,1.9106e-05,1.6e-07,0.0,0 STARLINK-3651,1 51985U 22025AF  22327.47946043  .00000016  00000-0  19106-4 0  9990,2 51985  53.2188  36.0608 0001961  41.4618 318.6523 15.08831475 40656,6917.906,95.438,541.128,538.415,0.0
51985.0,STARLINK-3651,PAYLOAD,2022-11-23 13:05:48,15.08830911,0.000201,53.219,35.7642,41.4828,318.6317,6.2132e-05,7.01e-06,0.0,0 STARLINK-3651,1 51985U 22025AF  22327.54570156  .00000701  00000-0  62132-4 0  9994,2 51985  53.2190  35.7642 0002010  41.4828 318.6317 15.08830911 39576,6917.908,95.438,541.164,538.383,0.0
51985.0,STARLINK-3651,PAYLOAD,2022-11-23 19:27:21,15.08832977,0.0001957,53.2189,34.5737,41.9623,318.1519,7.383e-05,8.87e-06,0.0,0 STARLINK-3651,1 51985U 22025AF  22327.81066091  .00000887  00000-0  73830-4 0  9994,2 51985  53.2189  34.5737 0001957  41.9623 318.1519 15.08832977 39611,6917.901999999999,95.438,541.121,538.413,0.0
51985.0,STARLINK-3651,PAYLOAD,2022-11-24 01:48:50,15.08879142,0.0002211,53.2176,33.3847,33.0474,327.0656,-0.0011589,-0.00018705,0.0,0 STARLINK-3651,1 51985U 22025AF  22328.07559006 -.00018705  00000-0 -11589-2 0  9997,2 51985  53.2176  33.3847 0002211  33.0474 327.0656 15.08879142 40748,6917.761,95.435,541.155,538.096,0.0
51985.0,STARLINK-3651,PAYLOAD,2022-11-24 11:21:11,15.08847834,0.0002207,53.2174,31.6007,40.2338,319.8817,0.00022675,3.323e-05,0.0,0 STARLINK-3651,1 51985U 22025AF  22328.47305542  .00003323  00000-0  22675-3 0  9992,2 51985  53.2174  31.6007 0002207  40.2338 319.8817 15.08847834 40807,6917.856,95.437,541.248,538.195,0.0
